     2              NAVIGATION DATA                         RINEX VERSION / TYPE
CCRINEXN V1.6.0 UX  CDDIS               25-MAY-24 23:31     PGM / RUN BY / DATE 
IGS BROADCAST EPHEMERIS FILE                                COMMENT             
    0.1956D-07  0.2235D-07 -0.1192D-06 -0.1192D-06          ION ALPHA           
    0.1270D+06  0.1311D+06 -0.1966D+06 -0.1966D+06          ION BETA            
   -0.558793544769D-08-0.133226762955D-13    61440     2316 DELTA-UTC: A0,A1,T,W
    18                                                      LEAP SECONDS        
                                                            END OF HEADER       
29 24  5 24  3 59 44.0-0.597233884037D-03 0.147792889038D-11 0.000000000000D+00
    0.450000000000D+02 0.119281250000D+03 0.424910556373D-08-0.288285866970D+01
    0.617839396000D-05 0.291731953621D-02 0.197254121304D-05 0.515359608460D+04
    0.446384000000D+06 0.111758708954D-07 0.117313851457D+01-0.372529029846D-08
    0.971334534862D+00 0.347937500000D+03 0.253732727944D+01-0.817319758934D-08
    0.241081470582D-09 0.100000000000D+01 0.231500000000D+04 0.000000000000D+00
    0.200000000000D+01 0.000000000000D+00-0.977888703346D-08 0.450000000000D+02
    0.441816000000D+06 0.400000000000D+01 0.000000000000D+00 0.000000000000D+00
31 24  5 24  3 59 44.0-0.227720942348D-03 0.113686837722D-12 0.000000000000D+00
    0.900000000000D+01-0.138437500000D+02 0.509878381338D-08-0.354191208434D+00
   -0.668689608574D-06 0.104816210223D-01 0.608339905739D-05 0.515371593666D+04
    0.446384000000D+06 0.372529029846D-07-0.974542585473D+00 0.124797224999D-06
    0.953951906715D+00 0.257218750000D+03 0.677300684429D+00-0.827427322812D-08
   -0.542879755978D-09 0.100000000000D+01 0.231500000000D+04 0.000000000000D+00
    0.200000000000D+01 0.000000000000D+00-0.135041773319D-07 0.900000000000D+01
    0.443796000000D+06 0.400000000000D+01 0.000000000000D+00 0.000000000000D+00
32 24  5 24  3 59 44.0-0.617858953774D-03 0.568434188608D-12 0.000000000000D+00
    0.120000000000D+02 0.809375000000D+01 0.476769859378D-08-0.218169159594D+01
    0.512227416038D-06 0.777311169077D-02 0.744871795178D-05 0.515367034912D+04
    0.446384000000D+06 0.152736902237D-06-0.205419895681D+01 0.447034835815D-07
    0.961649048726D+00 0.234906250000D+03-0.213174070139D+01-0.783175479545D-08
    0.669670751618D-09 0.100000000000D+01 0.231500000000D+04 0.000000000000D+00
    0.200000000000D+01 0.000000000000D+00 0.931322574616D-09 0.120000000000D+02
    0.439218000000D+06 0.400000000000D+01 0.000000000000D+00 0.000000000000D+00
 1 24  5 24  4  0  0.0 0.270174350590D-03-0.522959453519D-11 0.000000000000D+00
    0.410000000000D+02 0.895000000000D+02 0.548451416631D-08-0.145112603060D+01
    0.460073351860D-05 0.133892801823D-01 0.112224370241D-04 0.515376791000D+04
    0.446400000000D+06 0.312924385071D-06 0.668400979869D-01 0.126659870148D-06
    0.954967752640D+00 0.160437500000D+03 0.103076473773D+01-0.766103339851D-08
   -0.504663878419D-09 0.100000000000D+01 0.231500000000D+04 0.000000000000D+00
    0.282842707634D+01 0.630000000000D+02-0.195577740669D-07 0.410000000000D+02
    0.446272000000D+06 0.400000000000D+01 0.000000000000D+00 0.000000000000D+00
 2 24  5 24  4  0  0.0-0.430707819760D-03 0.682121026330D-11 0.000000000000D+00
    0.111000000000D+03-0.675312500000D+02 0.435696719946D-08-0.266727686901D+01
   -0.331364572048D-05 0.159742602846D-01-0.121071934700D-06 0.515370207405D+04
    0.446400000000D+06 0.152736902237D-06 0.206124896384D+01 0.180676579475D-06
    0.967185010155D+00 0.378843750000D+03-0.118565324916D+01-0.803783480808D-08
   -0.260725145963D-10 0.100000000000D+01 0.231500000000D+04 0.000000000000D+00
    0.200000000000D+01 0.000000000000D+00-0.176951289177D-07 0.111000000000D+03
    0.439218000000D+06 0.400000000000D+01 0.000000000000D+00 0.000000000000D+00
 3 24  5 24  4  0  0.0 0.378890894353D-03 0.190993887372D-10 0.000000000000D+00
    0.880000000000D+02-0.101375000000D+03 0.377015704217D-08 0.838262753351D-01
   -0.545196235180D-05 0.549719703849D-02 0.101532787085D-04 0.515372712326D+04
    0.446400000000D+06-0.428408384323D-07-0.308750695129D+01 0.465661287308D-07
    0.984766380112D+00 0.201468750000D+03 0.108510335516D+01-0.758495880112D-08
    0.213223167315D-09 0.100000000000D+01 0.231500000000D+04 0.000000000000D+00
    0.400000000000D+01 0.000000000000D+00 0.139698386192D-08 0.880000000000D+02
    0.441738000000D+06 0.400000000000D+01 0.000000000000D+00 0.000000000000D+00
 4 24  5 24  4  0  0.0 0.367830041796D-03 0.829913915368D-11 0.000000000000D+00
    0.100000000000D+02 0.141562500000D+02 0.471983945740D-08 0.304913651479D+01
    0.795349478722D-06 0.283554079942D-02 0.732764601708D-05 0.515374078941D+04
    0.446400000000D+06-0.409781932831D-07-0.200929860552D+01-0.577419996262D-07
    0.964603694130D+00 0.243312500000D+03-0.294549786676D+01-0.784604110482D-08
    0.563237746827D-09 0.100000000000D+01 0.231500000000D+04 0.000000000000D+00
    0.200000000000D+01 0.000000000000D+00-0.465661287308D-08 0.778000000000D+03
    0.445038000000D+06 0.400000000000D+01 0.000000000000D+00 0.000000000000D+00
 5 24  5 24  4  0  0.0-0.173799227923D-03-0.136424205266D-11 0.000000000000D+00
    0.190000000000D+02-0.118343750000D+03 0.392944939162D-08-0.253303256451D+01
   -0.636652112007D-05 0.585282698739D-02 0.103060156107D-04 0.515362408638D+04
    0.446400000000D+06 0.763684511185D-07-0.313877841029D+01-0.745058059692D-08
    0.971718827349D+00 0.180031250000D+03 0.125119054838D+01-0.755638618239D-08
    0.266439669710D-09 0.100000000000D+01 0.231500000000D+04 0.000000000000D+00
    0.200000000000D+01 0.000000000000D+00-0.107102096081D-07 0.190000000000D+02
    0.439218000000D+06 0.400000000000D+01 0.000000000000D+00 0.000000000000D+00
 7 24  5 24  4  0  0.0-0.135403592140D-03-0.807176547823D-11 0.000000000000D+00
    0.630000000000D+02-0.151875000000D+02 0.528522015063D-08 0.528794268689D+00
   -0.497326254845D-06 0.185389555991D-01 0.617094337940D-05 0.515362902832D+04
    0.446400000000D+06-0.203028321266D-06-0.996033274841D+00 0.121071934700D-06
    0.949956339506D+00 0.258375000000D+03-0.212192393591D+01-0.853928426689D-08
   -0.618954353362D-09 0.100000000000D+01 0.231500000000D+04 0.000000000000D+00
    0.200000000000D+01 0.000000000000D+00-0.111758708954D-07 0.630000000000D+02
    0.439218000000D+06 0.400000000000D+01 0.000000000000D+00 0.000000000000D+00
 8 24  5 24  4  0  0.0 0.194346066564D-03 0.196678229258D-10 0.000000000000D+00
    0.260000000000D+02 0.131375000000D+03 0.449733018900D-08-0.290543564450D+01
    0.674277544022D-05 0.946377194487D-02 0.345334410667D-05 0.515363817787D+04
    0.446400000000D+06-0.800937414169D-07 0.106342637927D+01-0.819563865662D-07
    0.953232054467D+00 0.310593750000D+03 0.362752889680D+00-0.814783939022D-08
    0.292869342041D-09 0.100000000000D+01 0.231500000000D+04 0.000000000000D+00
    0.200000000000D+01 0.000000000000D+00 0.465661287308D-08 0.260000000000D+02
    0.439218000000D+06 0.400000000000D+01 0.000000000000D+00 0.000000000000D+00
 9 24  5 24  4  0  0.0 0.207805540413D-03 0.142108547152D-10 0.000000000000D+00
    0.940000000000D+02 0.120937500000D+02 0.487270296764D-08-0.244279958135D+01
    0.715255737305D-06 0.270184874535D-02 0.753626227379D-05 0.515365806198D+04
    0.446400000000D+06-0.298023223877D-07-0.206881022124D+01 0.279396772385D-07
    0.958240275514D+00 0.234906250000D+03 0.198711911142D+01-0.794747390133D-08
    0.603953728526D-09 0.100000000000D+01 0.231500000000D+04 0.000000000000D+00
    0.200000000000D+01 0.000000000000D+00 0.931322574616D-09 0.940000000000D+02
    0.439218000000D+06 0.400000000000D+01 0.000000000000D+00 0.000000000000D+00
10 24  5 24  4  0  0.0-0.286162830889D-04-0.704858393874D-11 0.000000000000D+00
    0.290000000000D+02-0.114625000000D+03 0.369908265307D-08-0.922706368412D+00
   -0.578910112381D-05 0.933433487080D-02 0.105127692223D-04 0.515369427490D+04
    0.446400000000D+06 0.121071934700D-06-0.309007309831D+01 0.175088644028D-06
    0.984430308331D+00 0.187375000000D+03-0.237150618079D+01-0.753317092966D-08
    0.268939773850D-09 0.100000000000D+01 0.231500000000D+04 0.000000000000D+00
    0.200000000000D+01 0.000000000000D+00 0.232830643654D-08 0.290000000000D+02
    0.439218000000D+06 0.400000000000D+01 0.000000000000D+00 0.000000000000D+00
11 24  5 24  4  0  0.0-0.669499859214D-03-0.898126018001D-11 0.000000000000D+00
    0.172000000000D+03-0.985625000000D+02 0.437768234804D-08 0.268761868784D+01
   -0.490806996822D-05 0.128917687107D-02 0.196322798729D-05 0.515371148300D+04
    0.446400000000D+06-0.260770320892D-07 0.219265880458D+01-0.689178705216D-07
    0.966129811733D+00 0.342187500000D+03-0.258561419099D+01-0.821748514838D-08
   -0.792890169915D-10 0.100000000000D+01 0.231500000000D+04 0.000000000000D+00
    0.200000000000D+01 0.000000000000D+00-0.884756445885D-08 0.172000000000D+03
    0.439218000000D+06 0.400000000000D+01 0.000000000000D+00 0.000000000000D+00
12 24  5 24  4  0  0.0-0.508017838001D-03-0.329691829393D-11 0.000000000000D+00
    0.290000000000D+02 0.866562500000D+02 0.415088718683D-08-0.202185501426D+00
    0.448338687420D-05 0.878312997520D-02 0.107344239950D-04 0.515365575600D+04
    0.446400000000D+06-0.119209289551D-06 0.119314387249D+00 0.726431608200D-07
    0.962940508417D+00 0.175656250000D+03 0.144790483128D+01-0.781711132835D-08
   -0.363586573412D-09 0.100000000000D+01 0.231500000000D+04 0.000000000000D+00
    0.200000000000D+01 0.000000000000D+00-0.125728547573D-07 0.290000000000D+02
    0.439224000000D+06 0.400000000000D+01 0.000000000000D+00 0.000000000000D+00
